ALOS (DAICHI)           
1 28931U 06002A   26051.89182899  .00001296  00000+0  22562-3 0  9996
2 28931  98.1191   7.9356 0001605  55.4657 304.6700 14.69749751 71010
H-2A R/B                
1 28932U 06002B   26052.30849108  .00008247  00000+0  41821-3 0  9999
2 28932  98.2384 197.9321 0052139 297.6453  61.9491 15.16048805 91950
RESURS-DK 1             
1 29228U 06021A   26052.06994743  .00001905  00000+0  11491-3 0  9992
2 29228  69.9317 280.0149 0003121 181.7489 178.3667 15.12636405 85014
CZ-4B R/B               
1 29507U 06046C   26052.11676091  .00004411  00000+0  22569-3 0  9991
2 29507  97.5627  97.0693 0032337 327.2714  32.6515 15.16714178 57532
CZ-2C R/B               
1 31114U 07010B   26052.31099159  .00000106  00000+0  67566-4 0  9990
2 31114  98.3973 166.4118 0058511 342.9030  17.0175 14.20239962977393
COSMO-SKYMED 1          
1 31598U 07023A   26052.21554594  .00003603  00000+0  32323-3 0  9995
2 31598  97.8872 243.1169 0001475  88.1387 272.0003 14.96399276 12448
COSMOS 2428             
1 31792U 07029A   26051.96865564  .00000183  00000+0  12383-3 0  9994
2 31792  70.9399 238.4416 0008112 295.2036  64.8243 14.12940319961735
SL-16 R/B               
1 31793U 07029B   26051.96384104 -.00000075  00000+0 -14264-4 0  9994
2 31793  70.9749 207.5411 0002436 282.6118 213.9627 14.14836696963000
KORONAS-FOTON           
1 33504U 09003A   26052.16345387  .00012341  00000+0  27994-3 0  9993
2 33504  82.4296 293.0546 0009722 209.0122 151.0586 15.42870512943190
CZ-2C R/B               
1 37731U 11030B   26051.85810090  .00001477  00000+0  19212-3 0  9997
2 37731  97.8517   9.4629 0053870  46.2000  13.7201 14.81149561787607
H-2A R/B                
1 38341U 12025E   26051.86317495  .00003467  00000+0  31689-3 0  9995
2 38341  98.4714  17.5693 0045089  10.0248 350.1859 14.95011384745706
SHIJIAN-16 (SJ-16)      
1 39358U 13057A   26052.27105150  .00001442  00000+0  14374-3 0  9992
2 39358  74.9707 216.1672 0016177 154.1528 206.0472 14.92270849669050
