CCSDS_OMM_VERS = 2.0
CREATION_DATE  = 
ORIGINATOR     = 

OBJECT_NAME    = ALOS (DAICHI)
OBJECT_ID      = 2006-002A
CENTER_NAME    = EARTH
REF_FRAME      = TEME
TIME_SYSTEM    = UTC
MEAN_ELEMENT_THEORY = SGP/SGP4

EPOCH          = 2026-02-20T21:24:14.024736
MEAN_MOTION    = 14.69749751
ECCENTRICITY   = .0001605
INCLINATION    = 98.1191
RA_OF_ASC_NODE = 7.9356
ARG_OF_PERICENTER = 55.4657
MEAN_ANOMALY   = 304.6700

EPHEMERIS_TYPE = 0
CLASSIFICATION_TYPE = U
NORAD_CAT_ID   = 28931
ELEMENT_SET_NO = 999
REV_AT_EPOCH   = 7101
BSTAR          = .22562E-3
MEAN_MOTION_DOT = .1296E-4
MEAN_MOTION_DDOT = 0

CCSDS_OMM_VERS = 2.0
CREATION_DATE  = 
ORIGINATOR     = 

OBJECT_NAME    = H-2A R/B
OBJECT_ID      = 2006-002B
CENTER_NAME    = EARTH
REF_FRAME      = TEME
TIME_SYSTEM    = UTC
MEAN_ELEMENT_THEORY = SGP/SGP4

EPOCH          = 2026-02-21T07:24:13.629312
MEAN_MOTION    = 15.16048805
ECCENTRICITY   = .00521397
INCLINATION    = 98.2384
RA_OF_ASC_NODE = 197.9321
ARG_OF_PERICENTER = 297.6453
MEAN_ANOMALY   = 61.9491

EPHEMERIS_TYPE = 0
CLASSIFICATION_TYPE = U
NORAD_CAT_ID   = 28932
ELEMENT_SET_NO = 999
REV_AT_EPOCH   = 9195
BSTAR          = .41821078E-3
MEAN_MOTION_DOT = .8247E-4
MEAN_MOTION_DDOT = 0

CCSDS_OMM_VERS = 2.0
CREATION_DATE  = 
ORIGINATOR     = 

OBJECT_NAME    = RESURS-DK 1
OBJECT_ID      = 2006-021A
CENTER_NAME    = EARTH
REF_FRAME      = TEME
TIME_SYSTEM    = UTC
MEAN_ELEMENT_THEORY = SGP/SGP4

EPOCH          = 2026-02-21T01:40:43.457952
MEAN_MOTION    = 15.12636405
ECCENTRICITY   = .00031211
INCLINATION    = 69.9317
RA_OF_ASC_NODE = 280.0149
ARG_OF_PERICENTER = 181.7489
MEAN_ANOMALY   = 178.3667

EPHEMERIS_TYPE = 0
CLASSIFICATION_TYPE = U
NORAD_CAT_ID   = 29228
ELEMENT_SET_NO = 999
REV_AT_EPOCH   = 8501
BSTAR          = .11491182E-3
MEAN_MOTION_DOT = .1905E-4
MEAN_MOTION_DDOT = 0

CCSDS_OMM_VERS = 2.0
CREATION_DATE  = 
ORIGINATOR     = 

OBJECT_NAME    = CZ-4B R/B
OBJECT_ID      = 2006-046C
CENTER_NAME    = EARTH
REF_FRAME      = TEME
TIME_SYSTEM    = UTC
MEAN_ELEMENT_THEORY = SGP/SGP4

EPOCH          = 2026-02-21T02:48:08.142624
MEAN_MOTION    = 15.16714178
ECCENTRICITY   = .00323378
INCLINATION    = 97.5627
RA_OF_ASC_NODE = 97.0693
ARG_OF_PERICENTER = 327.2714
MEAN_ANOMALY   = 32.6515

EPHEMERIS_TYPE = 0
CLASSIFICATION_TYPE = U
NORAD_CAT_ID   = 29507
ELEMENT_SET_NO = 999
REV_AT_EPOCH   = 5753
BSTAR          = .22568719E-3
MEAN_MOTION_DOT = .4411E-4
MEAN_MOTION_DDOT = 0

CCSDS_OMM_VERS = 2.0
CREATION_DATE  = 
ORIGINATOR     = 

OBJECT_NAME    = CZ-2C R/B
OBJECT_ID      = 2007-010B
CENTER_NAME    = EARTH
REF_FRAME      = TEME
TIME_SYSTEM    = UTC
MEAN_ELEMENT_THEORY = SGP/SGP4

EPOCH          = 2026-02-21T07:27:49.673376
MEAN_MOTION    = 14.20239962
ECCENTRICITY   = .00585117
INCLINATION    = 98.3973
RA_OF_ASC_NODE = 166.4118
ARG_OF_PERICENTER = 342.9030
MEAN_ANOMALY   = 17.0175

EPHEMERIS_TYPE = 0
CLASSIFICATION_TYPE = U
NORAD_CAT_ID   = 31114
ELEMENT_SET_NO = 999
REV_AT_EPOCH   = 97739
BSTAR          = .67566286E-4
MEAN_MOTION_DOT = .106E-5
MEAN_MOTION_DDOT = 0

CCSDS_OMM_VERS = 2.0
CREATION_DATE  = 
ORIGINATOR     = 

OBJECT_NAME    = COSMO-SKYMED 1
OBJECT_ID      = 2007-023A
CENTER_NAME    = EARTH
REF_FRAME      = TEME
TIME_SYSTEM    = UTC
MEAN_ELEMENT_THEORY = SGP/SGP4

EPOCH          = 2026-02-21T05:10:23.169216
MEAN_MOTION    = 14.96399276
ECCENTRICITY   = .00014751
INCLINATION    = 97.8872
RA_OF_ASC_NODE = 243.1169
ARG_OF_PERICENTER = 88.1387
MEAN_ANOMALY   = 272.0003

EPHEMERIS_TYPE = 0
CLASSIFICATION_TYPE = U
NORAD_CAT_ID   = 31598
ELEMENT_SET_NO = 999
REV_AT_EPOCH   = 1244
BSTAR          = .32322583E-3
MEAN_MOTION_DOT = .3603E-4
MEAN_MOTION_DDOT = 0

CCSDS_OMM_VERS = 2.0
CREATION_DATE  = 
ORIGINATOR     = 

OBJECT_NAME    = COSMOS 2428
OBJECT_ID      = 2007-029A
CENTER_NAME    = EARTH
REF_FRAME      = TEME
TIME_SYSTEM    = UTC
MEAN_ELEMENT_THEORY = SGP/SGP4

EPOCH          = 2026-02-20T23:14:51.847296
MEAN_MOTION    = 14.12940319
ECCENTRICITY   = .0008112
INCLINATION    = 70.9399
RA_OF_ASC_NODE = 238.4416
ARG_OF_PERICENTER = 295.2036
MEAN_ANOMALY   = 64.8243

EPHEMERIS_TYPE = 0
CLASSIFICATION_TYPE = U
NORAD_CAT_ID   = 31792
ELEMENT_SET_NO = 999
REV_AT_EPOCH   = 96173
BSTAR          = .12383E-3
MEAN_MOTION_DOT = .183E-5
MEAN_MOTION_DDOT = 0

CCSDS_OMM_VERS = 2.0
CREATION_DATE  = 
ORIGINATOR     = 

OBJECT_NAME    = SL-16 R/B
OBJECT_ID      = 2007-029B
CENTER_NAME    = EARTH
REF_FRAME      = TEME
TIME_SYSTEM    = UTC
MEAN_ELEMENT_THEORY = SGP/SGP4

EPOCH          = 2026-02-20T23:07:55.865856
MEAN_MOTION    = 14.14836696
ECCENTRICITY   = .0002436
INCLINATION    = 70.9749
RA_OF_ASC_NODE = 207.5411
ARG_OF_PERICENTER = 282.6118
MEAN_ANOMALY   = 213.9627

EPHEMERIS_TYPE = 0
CLASSIFICATION_TYPE = U
NORAD_CAT_ID   = 31793
ELEMENT_SET_NO = 999
REV_AT_EPOCH   = 96300
BSTAR          = -.14264E-4
MEAN_MOTION_DOT = -.75E-6
MEAN_MOTION_DDOT = 0

CCSDS_OMM_VERS = 2.0
CREATION_DATE  = 
ORIGINATOR     = 

OBJECT_NAME    = KORONAS-FOTON
OBJECT_ID      = 2009-003A
CENTER_NAME    = EARTH
REF_FRAME      = TEME
TIME_SYSTEM    = UTC
MEAN_ELEMENT_THEORY = SGP/SGP4

EPOCH          = 2026-02-21T03:55:22.414368
MEAN_MOTION    = 15.42870512
ECCENTRICITY   = .00097228
INCLINATION    = 82.4296
RA_OF_ASC_NODE = 293.0546
ARG_OF_PERICENTER = 209.0122
MEAN_ANOMALY   = 151.0586

EPHEMERIS_TYPE = 0
CLASSIFICATION_TYPE = U
NORAD_CAT_ID   = 33504
ELEMENT_SET_NO = 999
REV_AT_EPOCH   = 94319
BSTAR          = .27994087E-3
MEAN_MOTION_DOT = .12341E-3
MEAN_MOTION_DDOT = 0

CCSDS_OMM_VERS = 2.0
CREATION_DATE  = 
ORIGINATOR     = 

OBJECT_NAME    = CZ-2C R/B
OBJECT_ID      = 2011-030B
CENTER_NAME    = EARTH
REF_FRAME      = TEME
TIME_SYSTEM    = UTC
MEAN_ELEMENT_THEORY = SGP/SGP4

EPOCH          = 2026-02-20T20:35:39.917760
MEAN_MOTION    = 14.81149561
ECCENTRICITY   = .005387
INCLINATION    = 97.8517
RA_OF_ASC_NODE = 9.4629
ARG_OF_PERICENTER = 46.2000
MEAN_ANOMALY   = 13.7201

EPHEMERIS_TYPE = 0
CLASSIFICATION_TYPE = U
NORAD_CAT_ID   = 37731
ELEMENT_SET_NO = 999
REV_AT_EPOCH   = 78760
BSTAR          = .19212E-3
MEAN_MOTION_DOT = .1477E-4
MEAN_MOTION_DDOT = 0

CCSDS_OMM_VERS = 2.0
CREATION_DATE  = 
ORIGINATOR     = 

OBJECT_NAME    = H-2A R/B
OBJECT_ID      = 2012-025E
CENTER_NAME    = EARTH
REF_FRAME      = TEME
TIME_SYSTEM    = UTC
MEAN_ELEMENT_THEORY = SGP/SGP4

EPOCH          = 2026-02-20T20:42:58.315680
MEAN_MOTION    = 14.95011384
ECCENTRICITY   = .0045089
INCLINATION    = 98.4714
RA_OF_ASC_NODE = 17.5693
ARG_OF_PERICENTER = 10.0248
MEAN_ANOMALY   = 350.1859

EPHEMERIS_TYPE = 0
CLASSIFICATION_TYPE = U
NORAD_CAT_ID   = 38341
ELEMENT_SET_NO = 999
REV_AT_EPOCH   = 74570
BSTAR          = .31689E-3
MEAN_MOTION_DOT = .3467E-4
MEAN_MOTION_DDOT = 0

CCSDS_OMM_VERS = 2.0
CREATION_DATE  = 
ORIGINATOR     = 

OBJECT_NAME    = SHIJIAN-16 (SJ-16)
OBJECT_ID      = 2013-057A
CENTER_NAME    = EARTH
REF_FRAME      = TEME
TIME_SYSTEM    = UTC
MEAN_ELEMENT_THEORY = SGP/SGP4

EPOCH          = 2026-02-21T06:30:18.849600
MEAN_MOTION    = 14.92270849
ECCENTRICITY   = .00161776
INCLINATION    = 74.9707
RA_OF_ASC_NODE = 216.1672
ARG_OF_PERICENTER = 154.1528
MEAN_ANOMALY   = 206.0472

EPHEMERIS_TYPE = 0
CLASSIFICATION_TYPE = U
NORAD_CAT_ID   = 39358
ELEMENT_SET_NO = 999
REV_AT_EPOCH   = 66905
BSTAR          = .14373814E-3
MEAN_MOTION_DOT = .1442E-4
MEAN_MOTION_DDOT = 0

